     2.11           N: GPS NAV DATA                         RINEX VERSION / TYPE
teqc  2019Feb25                         20230503 21:10:07UTCPGM / RUN BY / DATE
Linux2.6.32-573.12.1.el6.x86_64|x86_64|gcc|Win64-MinGW64|=+ COMMENT
    1.6764D-08 -7.4506D-09 -1.1921D-07  1.1921D-07          ION ALPHA
    1.2083D+05 -1.1469D+05 -2.6214D+05  5.2429D+05          ION BETA
                                                            END OF HEADER
11 21 11 12 12  0  0.0 1.973938196898D-05-1.477928890381D-12 0.000000000000D+00
    5.900000000000D+01 3.068750000000D+01 4.615192241282D-09 1.670876741123D-01
    1.661479473114D-06 4.148990847170D-04 5.615875124931D-06 5.153732164383D+03
    4.752000000000D+05-4.284083843231D-08-1.142177591367D-01 1.676380634308D-08
    9.614020072126D-01 2.716250000000D+02 2.483083362549D+00-8.203198839016D-09
    2.864405028253D-10 1.000000000000D+00 2.183000000000D+03 0.000000000000D+00
    1.024000000000D+03 6.300000000000D+01-8.847564458847D-09 8.270000000000D+02
    4.680180000000D+05 4.000000000000D+00
 4 21 11 12 12  0  0.0-2.020145766437D-04 7.958078640513D-13 0.000000000000D+00
    6.100000000000D+01-6.175000000000D+01 4.356967199458D-09-5.545245414644D-01
   -3.281980752945D-06 1.518244738691D-03 1.061148941517D-05 5.153684070587D+03
    4.752000000000D+05 4.470348358154D-08 1.956795461665D+00-5.587935447693D-09
    9.605516246364D-01 1.747500000000D+02-3.127823011778D+00-7.880328247302D-09
   -6.643133856047D-11 1.000000000000D+00 2.183000000000D+03 0.000000000000D+00
    2.000000000000D+00 0.000000000000D+00-4.190951585770D-09 3.170000000000D+02
    4.680180000000D+05 4.000000000000D+00
 2 21 11 12 11 59 44.0-6.416738033295D-04-1.591615728103D-12 0.000000000000D+00
    2.200000000000D+01 4.037500000000D+01 4.333394789001D-09-2.186691362781D+00
    2.410262823105D-06 2.046304789837D-02 5.692243576050D-06 5.153797615051D+03
    4.751840000000D+05 2.216547727585D-07-2.474187616645D-01 2.291053533554D-07
    9.647778164914D-01 2.667187500000D+02-1.480860678808D+00-7.791038813753D-09
    3.328710082708D-10 1.000000000000D+00 2.183000000000D+03 0.000000000000D+00
    2.000000000000D+00 0.000000000000D+00-1.769512891769D-08 2.200000000000D+01
    4.680180000000D+05 4.000000000000D+00
20 21 11 12 12  0  0.0 5.181655287743D-04-2.273736754432D-13 0.000000000000D+00
    5.400000000000D+01-4.996875000000D+01 5.276648365013D-09-1.248255276397D+00
   -2.499669790268D-06 5.510432063602D-03 4.002824425697D-06 5.153686214447D+03
    4.752000000000D+05 6.146728992462D-08 7.240029265423D-01-7.823109626770D-08
    9.404394400489D-01 2.904687500000D+02 3.028641383596D+00-8.583928983669D-09
    1.292910997790D-10 1.000000000000D+00 2.183000000000D+03 0.000000000000D+00
    2.000000000000D+00 0.000000000000D+00-8.381903171539D-09 5.400000000000D+01
    4.680180000000D+05 4.000000000000D+00
30 21 11 12 12  0  0.0-4.907008260489D-04-3.183231456205D-12 0.000000000000D+00
    7.900000000000D+01 4.181250000000D+01 5.123784854777D-09-3.086302968244D+00
    2.088025212288D-06 5.344682605937D-03 8.294358849525D-06 5.153618547440D+03
    4.752000000000D+05-4.097819328308D-08 2.991172523028D+00-6.705522537231D-08
    9.367165212716D-01 2.061875000000D+02-2.744694217268D+00-8.190341160585D-09
    1.932223342001D-10 1.000000000000D+00 2.183000000000D+03 0.000000000000D+00
    2.800000000000D+00 0.000000000000D+00 3.725290298462D-09 7.900000000000D+01
    4.680180000000D+05 4.000000000000D+00
13 21 11 12 12  0  0.0 2.134712412953D-04 5.684341886081D-12 0.000000000000D+00
    7.300000000000D+01-3.606250000000D+01 4.308036589873D-09-7.193817219363D-01
   -1.920387148857D-06 5.682236514986D-03 9.847804903984D-06 5.153682910919D+03
    4.752000000000D+05 3.725290298462D-09 2.055957362397D+00 9.313225746155D-08
    9.681337300844D-01 1.926562500000D+02 9.778853108598D-01-7.914972547519D-09
   -6.071681481333D-11 1.000000000000D+00 2.183000000000D+03 0.000000000000D+00
    2.000000000000D+00 0.000000000000D+00-1.117587089539D-08 7.300000000000D+01
    4.687320000000D+05 4.000000000000D+00
 5 21 11 12 12  0  0.0-6.080884486437D-05-1.250555214938D-12 0.000000000000D+00
    6.000000000000D+01-5.381250000000D+01 4.839487298357D-09 2.265855896050D-01
   -2.650544047356D-06 5.997977335937D-03 4.868954420090D-06 5.153615415573D+03
    4.752000000000D+05-2.607703208923D-08 8.362672614081D-01 1.117587089539D-08
    9.582412907789D-01 2.832187500000D+02 1.017940964619D+00-8.428922527028D-09
   -3.607293115380D-11 1.000000000000D+00 2.183000000000D+03 0.000000000000D+00
    2.000000000000D+00 0.000000000000D+00-1.117587089539D-08 6.000000000000D+01
    4.690980000000D+05 4.000000000000D+00
30 21 11 12 11 59 44.0-4.907008260489D-04-3.183231456205D-12 0.000000000000D+00
    9.000000000000D+00 4.181250000000D+01 5.123784854777D-09-3.088635978795D+00
    2.088025212288D-06 5.344690172933D-03 8.294358849525D-06 5.153618541718D+03
    4.751840000000D+05-4.097819328308D-08 2.991172666394D+00-6.705522537231D-08
    9.367165198087D-01 2.061875000000D+02-2.744695020410D+00-8.190341160585D-09
    1.932223342001D-10 1.000000000000D+00 2.183000000000D+03 0.000000000000D+00
    2.000000000000D+00 0.000000000000D+00 3.725290298462D-09 9.000000000000D+00
    4.705980000000D+05 4.000000000000D+00
29 21 11 12 12  0  0.0-4.395418800414D-04-5.229594535194D-12 0.000000000000D+00
    7.000000000000D+01 2.703125000000D+01 3.859446475723D-09-1.371691297820D-01
    1.300126314163D-06 1.841986784711D-03 8.404254913330D-06 5.153558761597D+03
    4.752000000000D+05 1.117587089539D-08-1.144642620034D+00-2.048909664154D-08
    9.825540208046D-01 2.272500000000D+02 2.382430901901D+00-7.796753337501D-09
   -8.286059433349D-11 1.000000000000D+00 2.183000000000D+03 0.000000000000D+00
    2.000000000000D+00 0.000000000000D+00-1.024454832077D-08 7.000000000000D+01
    4.731720000000D+05 4.000000000000D+00
15 21 11 12 11 59 44.0-1.070383004844D-04 2.842170943040D-12 0.000000000000D+00
    1.700000000000D+01-5.200000000000D+01 5.253075954556D-09-1.083694206636D+00
   -2.583488821983D-06 1.387103006709D-02 8.909031748772D-06 5.153701000214D+03
    4.751840000000D+05 1.210719347000D-07 1.801022044254D+00 3.241002559662D-07
    9.292121655308D-01 1.898125000000D+02 1.053251413909D+00-8.429636842496D-09
   -1.232194182976D-10 1.000000000000D+00 2.183000000000D+03 0.000000000000D+00
    2.000000000000D+00 0.000000000000D+00-1.071020960808D-08 1.700000000000D+01
    4.738980000000D+05 4.000000000000D+00
14 21 11 12 12  0  0.0-3.685848787427D-05-6.934897101019D-12 0.000000000000D+00
    1.040000000000D+02 1.290625000000D+01 4.828772566331D-09 2.510211681764D+00
    7.096678018570D-07 1.169397612102D-03 5.749985575676D-06 5.153639034271D+03
    4.752000000000D+05-9.313225746155D-09-2.224698820047D+00-1.490116119385D-08
    9.549830415969D-01 2.641250000000D+02 3.118825454090D+00-8.252486606335D-09
   -2.350097891010D-10 1.000000000000D+00 2.183000000000D+03 0.000000000000D+00
    2.000000000000D+00 0.000000000000D+00-7.916241884232D-09 8.720000000000D+02
    4.750260000000D+05 4.000000000000D+00
11 21 11 12 14  0  0.0 1.972913742065D-05-1.477928890381D-12 0.000000000000D+00
    6.000000000000D+01 3.581250000000D+01 4.629478550650D-09 1.217674589011D+00
    1.873821020126D-06 4.141071112826D-04 5.964189767838D-06 5.153730792999D+03
    4.824000000000D+05-5.960464477539D-08-1.142768888225D-01-1.117587089539D-08
    9.614040143362D-01 2.660625000000D+02 2.482643281681D+00-8.219985252523D-09
    2.928693420408D-10 1.000000000000D+00 2.183000000000D+03 0.000000000000D+00
    1.024000000000D+03 6.300000000000D+01-8.847564458847D-09 8.280000000000D+02
    4.752180000000D+05 4.000000000000D+00
20 21 11 12 14  0  0.0 5.181641317904D-04-2.273736754432D-13 0.000000000000D+00
    5.500000000000D+01-4.043750000000D+01 5.379509792461D-09-1.982919946975D-01
   -2.063810825348D-06 5.509565351531D-03 3.742054104805D-06 5.153683465958D+03
    4.824000000000D+05 1.154839992523D-07 7.239412923407D-01 1.862645149231D-08
    9.404399608478D-01 2.963125000000D+02 3.028858188055D+00-8.661432211989D-09
    7.643175511796D-11 1.000000000000D+00 2.183000000000D+03 0.000000000000D+00
    2.000000000000D+00 0.000000000000D+00-8.381903171539D-09 5.500000000000D+01
    4.752180000000D+05 4.000000000000D+00
30 21 11 12 13 59 44.0-4.907241091132D-04-3.183231456205D-12 0.000000000000D+00
    1.000000000000D+01 4.331250000000D+01 5.131642324929D-09-2.038393284131D+00
    2.130866050720D-06 5.344502744265D-03 8.318573236465D-06 5.153618963242D+03
    4.823840000000D+05 2.793967723846D-08 2.991113251439D+00-8.009374141693D-08
    9.367179505425D-01 2.055312500000D+02-2.744718653852D+00-8.229628511346D-09
    2.407243128482D-10 1.000000000000D+00 2.183000000000D+03 0.000000000000D+00
    2.000000000000D+00 0.000000000000D+00 3.725290298462D-09 1.000000000000D+01
    4.752180000000D+05 4.000000000000D+00
 2 21 11 12 14  0  0.0-6.416849792004D-04-1.591615728103D-12 0.000000000000D+00
    2.300000000000D+01 4.415625000000D+01 4.578404994660D-09-1.134353675801D+00
    2.628192305565D-06 2.046345069539D-02 7.120892405510D-06 5.153793624878D+03
    4.824000000000D+05-3.911554813385D-07-2.474770106737D-01 2.738088369370D-07
    9.647773746902D-01 2.518750000000D+02-1.480758754380D+00-8.399992750558D-09
    3.278707999920D-10 1.000000000000D+00 2.183000000000D+03 0.000000000000D+00
    2.000000000000D+00 0.000000000000D+00-1.769512891769D-08 2.300000000000D+01
    4.752180000000D+05 4.000000000000D+00
